GOES-18
1 51850U 22021A   25359.08919137  .00000118  00000-0  00000+0 0  9997
2 51850   0.0027 276.3002 0000406  41.3938  31.2662  1.00271254  4846
MERIDIAN-10
1 52145U 22030A   25357.01102899  .00000350  00000-0  00000-0 0  9994
2 52145  62.6660 159.4934 6744226 273.0651  17.8963  2.00597500 27499
BRO-6
1 52422U 22047AE  25359.18045771  .00014446  00000-0  34182-3 0  9997
2 52422  97.3523  83.1189 0004193 356.6228   3.4990 15.41896280204279
CONNECTA-T1
1 52739U 22057H   25358.97145738  .00471117  95801-4  10239-2 0  9994
2 52739  97.6131 155.1538 0004916 305.2105  54.8711 15.98296558200184
STEP CUBELAB-II
1 52897U 22065D   25359.22721043  .00001014  00000-0  20760-3 0  9995
2 52897  98.1960 138.9832 0008052 203.2995 156.7843 14.62903669186066
RANDEV
1 52898U 22065E   25359.13630156  .00001355  00000-0  27206-3 0  9990
2 52898  98.1945 139.1692 0007406 203.8013 156.2848 14.63262085185796
SNUGLITE-II
1 52899U 22065F   25358.96914998  .00001359  00000-0  26922-3 0  9998
2 52899  98.1934 139.4336 0007065 203.0220 157.0667 14.63869206185501
MIMAN
1 52900U 22065G   25358.97191654  .00000727  00000-0  15599-3 0  9994
2 52900  98.1987 137.6421 0007123 202.7617 157.3269 14.61560964184998
GREENCUBE (IO-117)
1 53106U 22080B   25051.21822557 -.00000003  00000-0  00000 0 0  9995
2 53106  70.1434 106.3440 0008542  48.0089 312.1297  6.42557744 61200
ROBUSTA 1F (MTCUBE-2)
1 53109U 22080E   25359.02712353 -.00000003  00000-0  00000+0 0  9990
2 53109  70.1577 358.8074 0009115 325.2964  34.7101  6.42583310 80870
BLUEWALKER-3
1 53807U 22111AL  25358.67528379  .00005781  00000-0  17338-3 0  9996
2 53807  53.2295 131.9237 0006539  13.3242 346.7934 15.35968108183368
ELEKTRO-L4
1 55506U 23016A   25355.28904845 -.00000035  00000-0  00000-0 0  9992
2 55506   0.0994 109.3783 0002985 149.4887 101.1078  1.00270964 10559
SHARJAHSAT-1
1 55104U 23001CZ  25359.15837334  .00020637  00000-0  48784-3 0  9991
2 55104  97.3441  61.1639 0007135  26.6630 333.4983 15.41829792165610
METEOR M2-3
1 57166U 23091A   25359.19835240  .00000005  00000-0  21290-4 0  9999
2 57166  98.6361  52.5191 0003246 329.8310  30.2682 14.24027549129757
STRATOSAT-TK1 (RS52S)
1 57167U 23091B   25359.13659822  .00477126  00000-0  19430-2 0  9997
2 57167  97.5158  72.7181 0005707 289.0204  71.0448 15.84973936138835
RESHUCUBE-2 (RS37S)
1 57168U 23091C   25359.13257051  .00011486  00000-0  49417-3 0  9998
2 57168  97.5293  55.8662 0012332   4.8376 355.2977 15.22724418137730
RASSVET 1-1
1 57169U 23091D   25359.10482450  .00009628  00000-0  43721-3 0  9996
2 57169  97.5368  55.4403 0010679 358.7677   1.3530 15.20945901137677
RASSVET 1-2
1 57170U 23091E   25359.10495666  .00009239  00000-0  41984-3 0  9998
2 57170  97.5373  55.5056 0009324 351.0621   9.0447 15.20945924137677
RASSVET 1-3
1 57171U 23091F   25359.10467434  .00009757  00000-0  44287-3 0  9995
2 57171  97.5369  55.4646 0011745   8.6561 351.4874 15.20946342137678
UMKA-1 (RS40S)
1 57172U 23091G   25359.13275171  .00006839  00000-0  33568-3 0  9992
2 57172  97.5318  53.5435 0013737  12.7363 347.4215 15.18330627137570
SATURN (RS43S)
1 57174U 23091J   25359.08222595  .00004849  00000-0  28229-3 0  9997
2 57174  97.5329  49.5785 0014508  34.2633 325.9531 15.12408606137303
CUBEBEL-2 (EU11S)
1 57175U 23091K   25359.12908617  .00014549  00000-0  59587-3 0  9998
2 57175  97.5316  56.1392 0011123  15.6761 344.4818 15.24346302137742
SITRO-AIS-5 (ANOKHIN)
1 57176U 23091L   25359.18631948  .00013820  00000-0  55889-3 0  9997
2 57176  97.5322  56.7677 0012541   2.4897 357.6400 15.24770000137784
ZORKIY-2M
1 57177U 23091M   25359.17792697  .00008652  00000-0  42639-3 0  9992
2 57177  97.5359  53.7800 0014266   8.8873 351.2610 15.18102315137571
CUBESX-HSE-3 (RS42S)
1 57178U 23091N   25359.20503406  .00014068  00000-0  54692-3 0  9995
2 57178  97.5350  57.9917 0011722 353.9735   6.1360 15.26094300137844
PHI-DEMO
1 57181U 23091R   25359.19090925  .00003717  00000-0  21321-3 0  9996
2 57181  97.5335  50.3578 0016197  23.9799 336.2183 15.13079054137368
MONITOR-3 (RS58S)
1 57180U 23091Q   25359.22522466  .00012004  00000-0  50205-3 0  9991
2 57180  97.5345  56.6649 0012652 358.5803   1.5395 15.23670304137768
NORBY-2
1 57179U 23091P   25359.19674868  .00004716  00000-0  25715-3 0  9998
2 57179  97.5365  51.8496 0015731  13.6938 346.4718 15.14761065137433
MONITOR-4 (RS57S)
1 57182U 23091S   25359.21410532  .00011555  00000-0  48242-3 0  9990
2 57182  97.5339  56.6153 0012682 359.0586   1.0625 15.23739678137761
MONITOR-2 (RS39S)
1 57184U 23091U   25359.22255230  .00006347  00000-0  32528-3 0  9998
2 57184  97.5345  53.6169 0011759   5.2547 354.8807 15.16866750137568
SVYATOBOR-1 (RS60S)
1 57187U 23091X   25359.17404617  .00010558  00000-0  45109-3 0  9998
2 57187  97.5352  57.2255 0009832 352.0604   8.0475 15.23010813137794
VIZARD-METEO (RS38S)
1 57189U 23091Z   25359.20139606  .00017847  00000-0  62097-3 0  9990
2 57189  97.5342  60.7699 0007641 338.9181  21.1742 15.29735747138032
NANOZOND-1 (RS49S)
1 57190U 23091AA  25359.17421663  .00076016  00000-0  11310-2 0  9999
2 57190  97.5259  69.6678 0004058 309.7635  50.3261 15.54880600138638
SITRO-AIS-6 (CHIRKIN)
1 57192U 23091AC  25359.18077422  .00007796  00000-0  33255-3 0  9994
2 57192  97.5324  56.6003 0012535   5.1621 354.9742 15.23134299137775
SITRO-AIS-8 (SHCHUKIN)
1 57193U 23091AD  25359.20583106  .00015595  00000-0  59453-3 0  9993
2 57193  97.5316  57.7682 0011715   0.5956 359.5294 15.26721052137855
SITRO-AIS-7 (SHEFFER)
1 57194U 23091AE  25359.22020751  .00007295  00000-0  31329-3 0  9998
2 57194  97.5324  56.5365 0012440   6.1173 354.0213 15.22925807137771
AVION KALUGA 650 (RS24S)
1 57195U 23091AF  25359.22236267  .00007044  00000-0  34892-3 0  9990
2 57195  97.5359  54.5285 0010905   4.8151 355.3186 15.18030406137617
SITRO-AIS-10 (KATYS)
1 57199U 23091AK  25359.21214380  .00019173  00000-0  63515-3 0  9995
2 57199  97.5332  61.3047 0007385 342.1067  17.9912 15.31314935138072
SITRO-AIS-9 (BURDAEV)
1 57201U 23091AM  25359.19387756  .00019598  00000-0  65523-3 0  9996
2 57201  97.5331  61.1252 0007377 342.5720  17.5266 15.31013906138063
UTMN-2 (RS27S)
1 57203U 23091AP  25359.19209913  .00014547  00000-0  55025-3 0  9991
2 57203  97.5342  59.3946 0008474 343.2318  16.8639 15.27028925137940
SITRO-AIS-12 (FARTUSHNY)
1 57204U 23091AQ  25359.21368631  .00019007  00000-0  63123-3 0  9992
2 57204  97.5340  61.5171 0007162 335.5008  24.5891 15.31237166138083
AHMAT-1 (RS41S)
1 57206U 23091AS  25359.21705693  .00041234  00000-0  93173-3 0  9992
2 57206  97.5292  66.0038 0005131 323.9636  36.1264 15.43057775138403
SITRO-AIS-11 (SMIRENNY)
1 57208U 23091AU  25359.20194473  .00019932  00000-0  65602-3 0  9997
2 57208  97.5339  61.6612 0007034 335.4190  24.6715 15.31519299138092
KUZGTU-1 (RS47S)
1 57217U 23091AV  25359.19603810  .00013641  00000-0  54542-3 0  9997
2 57217  97.5323  57.2441 0011962 356.9244   3.1918 15.25160931137813
STRATOSAT-TK1-E (RS52SE)
1 57323U 23091AX  25359.21519314  .00069280  00000-0  11832-2 0  9997
2 57323  97.5282  67.0316 0006533 319.6257  40.4509 15.51052550136346
STRATOSAT-TK1-D (RS52SD)
1 57326U 23091BA  25359.22118101  .00062359  00000-0  11511-2 0  9994
2 57326  97.5272  66.3443 0006498 325.0442  35.0381 15.48871217136149
METEOR M2-4
1 59051U 24039A   25359.15592809  .00000045  00000-0  39876-4 0  9997
2 59051  98.6784 315.8711 0006390 321.1725  38.8993 14.22403141 94521
ZORKIY-2M 2
1 59064U 24039P   25359.03657832  .00636741  20302-3  87392-3 0  9999
2 59064  97.4209 344.1512 0006612 103.0008 257.2011 16.06175667102763
PARS-1
1 59065U 24039Q   25359.19998098  .00013320  00000-0  32155-3 0  9998
2 59065  97.4655 330.3999 0011538  34.1291 326.0695 15.41254460101800
SITRO-AIS-25
1 59066U 24039R   25359.21773322  .00008958  00000-0  72424-3 0  9997
2 59066  95.3962 115.6410 0148488 215.1191 144.0177 14.91585325 98771
SITRO-AIS-26
1 59067U 24039S   25359.19717407  .00008265  00000-0  67109-3 0  9992
2 59067  95.3959 115.5570 0148806 215.6485 143.4733 14.91408405 98762
SITRO-AIS-27
1 59068U 24039T   25359.21372051  .00009055  00000-0  72932-3 0  9996
2 59068  95.3962 115.7647 0147921 214.5170 144.6383 14.91782260 98780
SITRO-AIS-28
1 59071U 24039U   25359.19527097  .00008143  00000-0  65551-3 0  9995
2 59071  95.3960 115.7902 0147860 214.5063 144.6496 14.91826035 98783
SONATE-2
1 59112U 24043Q   25358.11402523  .00028848  00000-0  59775-3 0  9998
2 59112  97.5340 134.7952 0009381 122.2209 237.9950 15.45666302100732
HORS-1
1 57188U 23091Y   25359.16815633  .00010327  00000-0  44077-3 0  9999
2 57188  97.5332  57.0103 0009337 352.6733   7.4366 15.23056867137793
HORS-2
1 57196U 23091AG  25359.20700266  .00014537  00000-0  55355-3 0  9996
2 57196  97.5344  59.2688 0008573 347.5481  12.5544 15.26806418137930
ZORKIY-2M 6
1 59774U 24092B   25359.23371742  .00012595  00000-0  51388-3 0  9992
2 59774  97.6303 119.3677 0010562  74.2339 286.0062 15.24518490 88995
ZORKIY-2M 4
1 59775U 24092C   25359.22313688  .00013282  00000-0  53235-3 0  9994
2 59775  97.6438 120.7000 0010600  76.4958 283.7459 15.25104162 89022
SITRO-AIS-53
1 59776U 24092D   25359.06094625  .00018628  00000-0  65230-3 0  9991
2 59776  97.6383 121.1530 0008920  51.0003 309.2030 15.29510846 89064
SITRO-AIS-54
1 59777U 24092E   25358.87007492  .00019017  00000-0  66745-3 0  9991
2 59777  97.6382 120.9363 0009190  51.7511 308.4554 15.29428495 89033
SITRO-AIS-56
1 59778U 24092F   25358.85206798  .00018964  00000-0  65539-3 0  9990
2 59778  97.6380 121.0801 0009236  52.0147 308.1925 15.29931393 89047
RASSVET 1-4
1 59779U 24092G   25359.21920609  .00000250  00000-0  11016-3 0  9996
2 59779  98.6532 113.6584 0011846   5.3467 354.7841 14.31748696 84008
RASSVET 1-5
1 59780U 24092H   25359.21909161  .00000235  00000-0  10474-3 0  9998
2 59780  98.6532 113.6528 0012240   6.5655 353.5686 14.31746893 84000
